KUIPER-00044            
1 64505U 25134F   25230.91668981 -.00509030  00000+0 -46613-1 0  9994
2 64505  51.8990  64.0015 0013465 322.8356 148.9928 14.96811422  9365
KUIPER-00046            
1 64506U 25134G   25230.91668981 -.00830328  00000+0 -54460-1 0  9991
2 64506  51.8797  62.0380 0010394 332.2388  33.0539 15.09724891  9418
KUIPER-00047            
1 64507U 25134H   25230.53592153  .00024837  00000+0  73222-3 0  9994
2 64507  51.8611  61.0200 0010179 327.5952  32.4407 15.34823044  9852
KUIPER-00048            
1 64508U 25134J   25230.26783139  .00022370  00000+0  61899-3 0  9998
2 64508  51.8770  61.5603 0003547 304.6350  55.4302 15.36912666  9827
KUIPER-00049            
1 64509U 25134K   25230.23545578  .00019462  00000+0  55605-3 0  9995
2 64509  51.8724  62.0635 0007030 308.4339  51.6016 15.35988939  9812
KUIPER-00050            
1 64510U 25134L   25230.24521777  .00020732  00000+0  59874-3 0  9997
2 64510  51.8730  62.1301 0007551 302.9204  57.1055 15.35605252  9818
KUIPER-00051            
1 64511U 25134M   25230.81848935  .00028663  00000+0  85524-3 0  9991
2 64511  51.8718  59.2325 0005509 294.8403  65.2009 15.34396287  9823
KUIPER-00052            
1 64512U 25134N   25230.24668038  .00077447  00000+0  11392-2 0  9998
2 64512  51.8764  59.2124 0004969 337.1745  22.9027 15.54755978  9852
