<?xml version="1.0" encoding="UTF-8"?>
<ndm xmlns:xsi="http://www.w3.org/2001/XMLSchema-instance" xsi:noNamespaceSchemaLocation="https://sanaregistry.org/r/ndmxml_unqualified/ndmxml-2.0.0-master-2.0.xsd">
<omm id="CCSDS_OMM_VERS" version="2.0">
<header><CREATION_DATE/><ORIGINATOR/></header><body><segment><metadata><OBJECT_NAME>KUIPER-00044</OBJECT_NAME><OBJECT_ID>2025-134F</OBJECT_ID><CENTER_NAME>EARTH</CENTER_NAME><REF_FRAME>TEME</REF_FRAME><TIME_SYSTEM>UTC</TIME_SYSTEM><MEAN_ELEMENT_THEORY>SGP4</MEAN_ELEMENT_THEORY></metadata><data><meanElements><EPOCH>2025-08-18T22:00:01.999584</EPOCH><MEAN_MOTION>14.96811422</MEAN_MOTION><ECCENTRICITY>.0013465</ECCENTRICITY><INCLINATION>51.8990</INCLINATION><RA_OF_ASC_NODE>64.0015</RA_OF_ASC_NODE><ARG_OF_PERICENTER>322.8356</ARG_OF_PERICENTER><MEAN_ANOMALY>148.9928</MEAN_ANOMALY></meanElements><tleParameters><EPHEMERIS_TYPE>0</EPHEMERIS_TYPE><CLASSIFICATION_TYPE>U</CLASSIFICATION_TYPE><NORAD_CAT_ID>64505</NORAD_CAT_ID><ELEMENT_SET_NO>999</ELEMENT_SET_NO><REV_AT_EPOCH>936</REV_AT_EPOCH><BSTAR>-.46613E-1</BSTAR><MEAN_MOTION_DOT>-.50903E-2</MEAN_MOTION_DOT><MEAN_MOTION_DDOT>0</MEAN_MOTION_DDOT></tleParameters></data></segment></body></omm>
<omm id="CCSDS_OMM_VERS" version="2.0">
<header><CREATION_DATE/><ORIGINATOR/></header><body><segment><metadata><OBJECT_NAME>KUIPER-00046</OBJECT_NAME><OBJECT_ID>2025-134G</OBJECT_ID><CENTER_NAME>EARTH</CENTER_NAME><REF_FRAME>TEME</REF_FRAME><TIME_SYSTEM>UTC</TIME_SYSTEM><MEAN_ELEMENT_THEORY>SGP4</MEAN_ELEMENT_THEORY></metadata><data><meanElements><EPOCH>2025-08-18T22:00:01.999584</EPOCH><MEAN_MOTION>15.09724891</MEAN_MOTION><ECCENTRICITY>.0010394</ECCENTRICITY><INCLINATION>51.8797</INCLINATION><RA_OF_ASC_NODE>62.0380</RA_OF_ASC_NODE><ARG_OF_PERICENTER>332.2388</ARG_OF_PERICENTER><MEAN_ANOMALY>33.0539</MEAN_ANOMALY></meanElements><tleParameters><EPHEMERIS_TYPE>0</EPHEMERIS_TYPE><CLASSIFICATION_TYPE>U</CLASSIFICATION_TYPE><NORAD_CAT_ID>64506</NORAD_CAT_ID><ELEMENT_SET_NO>999</ELEMENT_SET_NO><REV_AT_EPOCH>941</REV_AT_EPOCH><BSTAR>-.5446E-1</BSTAR><MEAN_MOTION_DOT>-.830328E-2</MEAN_MOTION_DOT><MEAN_MOTION_DDOT>0</MEAN_MOTION_DDOT></tleParameters></data></segment></body></omm>
<omm id="CCSDS_OMM_VERS" version="2.0">
<header><CREATION_DATE/><ORIGINATOR/></header><body><segment><metadata><OBJECT_NAME>KUIPER-00047</OBJECT_NAME><OBJECT_ID>2025-134H</OBJECT_ID><CENTER_NAME>EARTH</CENTER_NAME><REF_FRAME>TEME</REF_FRAME><TIME_SYSTEM>UTC</TIME_SYSTEM><MEAN_ELEMENT_THEORY>SGP4</MEAN_ELEMENT_THEORY></metadata><data><meanElements><EPOCH>2025-08-18T12:51:43.620192</EPOCH><MEAN_MOTION>15.34823044</MEAN_MOTION><ECCENTRICITY>.0010179</ECCENTRICITY><INCLINATION>51.8611</INCLINATION><RA_OF_ASC_NODE>61.0200</RA_OF_ASC_NODE><ARG_OF_PERICENTER>327.5952</ARG_OF_PERICENTER><MEAN_ANOMALY>32.4407</MEAN_ANOMALY></meanElements><tleParameters><EPHEMERIS_TYPE>0</EPHEMERIS_TYPE><CLASSIFICATION_TYPE>U</CLASSIFICATION_TYPE><NORAD_CAT_ID>64507</NORAD_CAT_ID><ELEMENT_SET_NO>999</ELEMENT_SET_NO><REV_AT_EPOCH>985</REV_AT_EPOCH><BSTAR>.73222E-3</BSTAR><MEAN_MOTION_DOT>.24837E-3</MEAN_MOTION_DOT><MEAN_MOTION_DDOT>0</MEAN_MOTION_DDOT></tleParameters></data></segment></body></omm>
<omm id="CCSDS_OMM_VERS" version="2.0">
<header><CREATION_DATE/><ORIGINATOR/></header><body><segment><metadata><OBJECT_NAME>KUIPER-00048</OBJECT_NAME><OBJECT_ID>2025-134J</OBJECT_ID><CENTER_NAME>EARTH</CENTER_NAME><REF_FRAME>TEME</REF_FRAME><TIME_SYSTEM>UTC</TIME_SYSTEM><MEAN_ELEMENT_THEORY>SGP4</MEAN_ELEMENT_THEORY></metadata><data><meanElements><EPOCH>2025-08-18T06:25:40.632096</EPOCH><MEAN_MOTION>15.36912666</MEAN_MOTION><ECCENTRICITY>.0003547</ECCENTRICITY><INCLINATION>51.8770</INCLINATION><RA_OF_ASC_NODE>61.5603</RA_OF_ASC_NODE><ARG_OF_PERICENTER>304.6350</ARG_OF_PERICENTER><MEAN_ANOMALY>55.4302</MEAN_ANOMALY></meanElements><tleParameters><EPHEMERIS_TYPE>0</EPHEMERIS_TYPE><CLASSIFICATION_TYPE>U</CLASSIFICATION_TYPE><NORAD_CAT_ID>64508</NORAD_CAT_ID><ELEMENT_SET_NO>999</ELEMENT_SET_NO><REV_AT_EPOCH>982</REV_AT_EPOCH><BSTAR>.61899E-3</BSTAR><MEAN_MOTION_DOT>.2237E-3</MEAN_MOTION_DOT><MEAN_MOTION_DDOT>0</MEAN_MOTION_DDOT></tleParameters></data></segment></body></omm>
<omm id="CCSDS_OMM_VERS" version="2.0">
<header><CREATION_DATE/><ORIGINATOR/></header><body><segment><metadata><OBJECT_NAME>KUIPER-00049</OBJECT_NAME><OBJECT_ID>2025-134K</OBJECT_ID><CENTER_NAME>EARTH</CENTER_NAME><REF_FRAME>TEME</REF_FRAME><TIME_SYSTEM>UTC</TIME_SYSTEM><MEAN_ELEMENT_THEORY>SGP4</MEAN_ELEMENT_THEORY></metadata><data><meanElements><EPOCH>2025-08-18T05:39:03.379392</EPOCH><MEAN_MOTION>15.35988939</MEAN_MOTION><ECCENTRICITY>.000703</ECCENTRICITY><INCLINATION>51.8724</INCLINATION><RA_OF_ASC_NODE>62.0635</RA_OF_ASC_NODE><ARG_OF_PERICENTER>308.4339</ARG_OF_PERICENTER><MEAN_ANOMALY>51.6016</MEAN_ANOMALY></meanElements><tleParameters><EPHEMERIS_TYPE>0</EPHEMERIS_TYPE><CLASSIFICATION_TYPE>U</CLASSIFICATION_TYPE><NORAD_CAT_ID>64509</NORAD_CAT_ID><ELEMENT_SET_NO>999</ELEMENT_SET_NO><REV_AT_EPOCH>981</REV_AT_EPOCH><BSTAR>.55605E-3</BSTAR><MEAN_MOTION_DOT>.19462E-3</MEAN_MOTION_DOT><MEAN_MOTION_DDOT>0</MEAN_MOTION_DDOT></tleParameters></data></segment></body></omm>
<omm id="CCSDS_OMM_VERS" version="2.0">
<header><CREATION_DATE/><ORIGINATOR/></header><body><segment><metadata><OBJECT_NAME>KUIPER-00050</OBJECT_NAME><OBJECT_ID>2025-134L</OBJECT_ID><CENTER_NAME>EARTH</CENTER_NAME><REF_FRAME>TEME</REF_FRAME><TIME_SYSTEM>UTC</TIME_SYSTEM><MEAN_ELEMENT_THEORY>SGP4</MEAN_ELEMENT_THEORY></metadata><data><meanElements><EPOCH>2025-08-18T05:53:06.815328</EPOCH><MEAN_MOTION>15.35605252</MEAN_MOTION><ECCENTRICITY>.0007551</ECCENTRICITY><INCLINATION>51.8730</INCLINATION><RA_OF_ASC_NODE>62.1301</RA_OF_ASC_NODE><ARG_OF_PERICENTER>302.9204</ARG_OF_PERICENTER><MEAN_ANOMALY>57.1055</MEAN_ANOMALY></meanElements><tleParameters><EPHEMERIS_TYPE>0</EPHEMERIS_TYPE><CLASSIFICATION_TYPE>U</CLASSIFICATION_TYPE><NORAD_CAT_ID>64510</NORAD_CAT_ID><ELEMENT_SET_NO>999</ELEMENT_SET_NO><REV_AT_EPOCH>981</REV_AT_EPOCH><BSTAR>.59874E-3</BSTAR><MEAN_MOTION_DOT>.20732E-3</MEAN_MOTION_DOT><MEAN_MOTION_DDOT>0</MEAN_MOTION_DDOT></tleParameters></data></segment></body></omm>
<omm id="CCSDS_OMM_VERS" version="2.0">
<header><CREATION_DATE/><ORIGINATOR/></header><body><segment><metadata><OBJECT_NAME>KUIPER-00051</OBJECT_NAME><OBJECT_ID>2025-134M</OBJECT_ID><CENTER_NAME>EARTH</CENTER_NAME><REF_FRAME>TEME</REF_FRAME><TIME_SYSTEM>UTC</TIME_SYSTEM><MEAN_ELEMENT_THEORY>SGP4</MEAN_ELEMENT_THEORY></metadata><data><meanElements><EPOCH>2025-08-18T19:38:37.479840</EPOCH><MEAN_MOTION>15.34396287</MEAN_MOTION><ECCENTRICITY>.0005509</ECCENTRICITY><INCLINATION>51.8718</INCLINATION><RA_OF_ASC_NODE>59.2325</RA_OF_ASC_NODE><ARG_OF_PERICENTER>294.8403</ARG_OF_PERICENTER><MEAN_ANOMALY>65.2009</MEAN_ANOMALY></meanElements><tleParameters><EPHEMERIS_TYPE>0</EPHEMERIS_TYPE><CLASSIFICATION_TYPE>U</CLASSIFICATION_TYPE><NORAD_CAT_ID>64511</NORAD_CAT_ID><ELEMENT_SET_NO>999</ELEMENT_SET_NO><REV_AT_EPOCH>982</REV_AT_EPOCH><BSTAR>.85524E-3</BSTAR><MEAN_MOTION_DOT>.28663E-3</MEAN_MOTION_DOT><MEAN_MOTION_DDOT>0</MEAN_MOTION_DDOT></tleParameters></data></segment></body></omm>
<omm id="CCSDS_OMM_VERS" version="2.0">
<header><CREATION_DATE/><ORIGINATOR/></header><body><segment><metadata><OBJECT_NAME>KUIPER-00052</OBJECT_NAME><OBJECT_ID>2025-134N</OBJECT_ID><CENTER_NAME>EARTH</CENTER_NAME><REF_FRAME>TEME</REF_FRAME><TIME_SYSTEM>UTC</TIME_SYSTEM><MEAN_ELEMENT_THEORY>SGP4</MEAN_ELEMENT_THEORY></metadata><data><meanElements><EPOCH>2025-08-18T05:55:13.184832</EPOCH><MEAN_MOTION>15.54755978</MEAN_MOTION><ECCENTRICITY>.0004969</ECCENTRICITY><INCLINATION>51.8764</INCLINATION><RA_OF_ASC_NODE>59.2124</RA_OF_ASC_NODE><ARG_OF_PERICENTER>337.1745</ARG_OF_PERICENTER><MEAN_ANOMALY>22.9027</MEAN_ANOMALY></meanElements><tleParameters><EPHEMERIS_TYPE>0</EPHEMERIS_TYPE><CLASSIFICATION_TYPE>U</CLASSIFICATION_TYPE><NORAD_CAT_ID>64512</NORAD_CAT_ID><ELEMENT_SET_NO>999</ELEMENT_SET_NO><REV_AT_EPOCH>985</REV_AT_EPOCH><BSTAR>.11392E-2</BSTAR><MEAN_MOTION_DOT>.77447E-3</MEAN_MOTION_DOT><MEAN_MOTION_DDOT>0</MEAN_MOTION_DDOT></tleParameters></data></segment></body></omm>

</ndm>
